BIRKELAND               
1 55015U 23001G   26183.60906463  .00009915  00000+0  24747-3 0  9996
2 55015  97.3339 251.6203 0007695  60.9230 299.2786 15.40351501194729
ION SCV-008             
1 55051U 23001AU  26183.29344862  .00007299  00000+0  26326-3 0  9998
2 55051  97.5718 279.8658 0013651 323.6260  36.4050 15.28750470193648
ION SCV-007             
1 55060U 23001BD  26183.57044769  .00000523  00000+0  80376-4 0  9991
2 55060  97.9000 246.2799 0010956 288.1551  71.8466 14.77567263188527
HUYGENS                 
1 55093U 23001CN  26183.60914140  .00009782  00000+0  24404-3 0  9995
2 55093  97.3243 250.8301 0009889  37.8277 322.3663 15.40348826194740
SHARJAHSAT-1            
1 55104U 23001CZ  26183.61333683  .00020990  00000+0  37974-3 0  9996
2 55104  97.3166 252.5983 0005976  59.8750 300.3094 15.49680704194887
HORUS 1                 
1 55690U 23025A   26183.65514418  .00006087  00000+0  25854-3 0  9998
2 55690  97.3458 257.9243 0002391 131.7508 228.3934 15.23424844186402
HORUS 2                 
1 55844U 23032A   26183.62341464  .00006642  00000+0  28044-3 0  9994
2 55844  97.3531 258.7165 0002225  91.5640 268.5852 15.23589104183833
GLOBAL-19               
1 55982U 23041B   26183.09766623  .00016619  00000+0  43492-3 0  9995
2 55982  42.0013 114.9146 0007532 123.0000 237.1564 15.38377845184226
ION SCV-010             
1 56192U 23054Q   26183.43591975  .00005760  00000+0  22406-3 0  9994
2 56192  97.3760  72.7426 0013813 144.3754 215.8409 15.26327089178524
TELEOS-2                
1 56310U 23057C   26183.35252985  .00006409  00000+0  49089-3 0  9992
2 56310   9.9881  93.7517 0000862 265.7235  94.2880 14.96403764175075
SNIPE 4                 
1 56744U 23072B   26183.58737801  .00022321  00000+0  50880-3 0  9992
2 56744  97.5232  30.0858 0003886 262.5131  97.5675 15.42929382172481
SNIPE 2                 
1 56745U 23072C   26183.64916157  .00028154  00000+0  54615-3 0  9993
2 56745  97.5224  33.3026 0002893 301.0263  59.0702 15.47635301172639
2023-072G               
1 56749U 23072G   26183.61209159  .00031166  00000+0  52853-3 0  9990
2 56749  97.4877  32.0857 0001527 281.2348  78.8732 15.51457724172852
GEISAT PRECURSOR        
1 56934U 23084C   26183.67107498  .00008283  00000+0  24745-3 0  9991
2 56934  97.6246 325.1370 0004041 289.3344  70.7462 15.34862508169909
BLACKJACK ACES-3        
1 56950U 23084U   26183.65535097  .00006609  00000+0  32261-3 0  9999
2 56950  97.6236 318.9659 0001261 347.2363  12.8839 15.18621580169519
BLACKJACK ACES-2        
1 56955U 23084Z   26183.39770890  .00008125  00000+0  39602-3 0  9998
2 56955  97.6232 318.7907 0000760 140.8256 219.3033 15.18598662169485
BLACKJACK ACES-1        
1 56956U 23084AA  26183.64916439  .00007481  00000+0  36444-3 0  9993
2 56956  97.6224 318.8164 0001394 127.4883 232.6478 15.18647100119246
ION SCV-011             
1 56957U 23084AB  26183.57728048  .00005643  00000+0  20345-3 0  9994
2 56957  98.1375  12.2836 0006842 354.5361   5.5801 15.28992625168166
GHOST-3                 
1 56958U 23084AC  26183.61163316  .00020123  00000+0  38086-3 0  9992
2 56958  97.6236 333.0166 0006130 230.7904 129.2802 15.48402800170403
AFR-1                   
1 56964U 23084AJ  26183.61555758  .00005214  00000+0  18962-3 0  9999
2 56964  97.6298 320.6801 0008986 286.4060  73.6191 15.28684332169588
METEOR-M2 3             
1 57166U 23091A   26183.62643262 -.00000004  00000+0  16999-4 0  9993
2 57166  98.6074 238.2883 0005008 118.4864 241.6821 14.24048062156715
UMKA 1 (RS40S)          
1 57172U 23091G   26183.62093961  .00006676  00000+0  30344-3 0  9994
2 57172  97.5040 242.2597 0014067  69.9565 290.3183 15.20998984166350
2023-091H               
1 57173U 23091H   26183.62988815  .00011981  00000+0  42754-3 0  9999
2 57173  97.5038 246.9493 0010740  66.0861 294.1503 15.28976057166662
2023-091J               
1 57174U 23091J   26183.58809170  .00004114  00000+0  22945-3 0  9991
2 57174  97.5042 236.4653 0014883  95.2734 265.0197 15.14036135165962
CUBEBEL 2 (EU11S)       
1 57175U 23091K   26183.62529324  .00013989  00000+0  48995-3 0  9990
2 57175  97.5041 246.9832 0010714  67.4010 292.8362 15.29548108166668
SITRO-AIS 5 (KATYS)     
1 57176U 23091L   26183.57397433  .00012651  00000+0  43966-3 0  9997
2 57176  97.5050 247.6223 0011950  55.1491 305.0872 15.29812501166698
ZORKIY-2M 1             
1 57177U 23091M   26183.60634835  .00007272  00000+0  32912-3 0  9994
2 57177  97.5080 242.5238 0014481  67.2591 293.0174 15.21107709166341
CUBESX-HSE 3 (RS42S)    
1 57178U 23091N   26183.59451771  .00014232  00000+0  46770-3 0  9990
2 57178  97.5082 249.3795 0011010  45.7690 314.4453 15.31606578166788
MONITOR-3 (RS58S)       
1 57180U 23091Q   26183.52239304  .00011458  00000+0  41919-3 0  9999
2 57180  97.5074 247.0831 0012278  52.5237 307.7117 15.28152800166634
MONITOR-4 (RS57S)       
1 57182U 23091S   26183.63155297  .00010955  00000+0  39983-3 0  9990
2 57182  97.5067 247.1652 0012283  52.6181 307.6175 15.28241276166656
