OBJECT_NAME,OBJECT_ID,EPOCH,MEAN_MOTION,ECCENTRICITY,INCLINATION,RA_OF_ASC_NODE,ARG_OF_PERICENTER,MEAN_ANOMALY,EPHEMERIS_TYPE,CLASSIFICATION_TYPE,NORAD_CAT_ID,ELEMENT_SET_NO,REV_AT_EPOCH,BSTAR,MEAN_MOTION_DOT,MEAN_MOTION_DDOT
BIRKELAND,2023-001G,2026-07-02T14:37:03.184032,15.40351501,.0007695,97.3339,251.6203,60.9230,299.2786,0,U,55015,999,19472,.24747462E-3,.9915E-4,0
ION SCV-008,2023-001AU,2026-07-02T07:02:33.960768,15.28750470,.00136513,97.5718,279.8658,323.6260,36.4050,0,U,55051,999,19364,.263261E-3,.7299E-4,0
ION SCV-007,2023-001BD,2026-07-02T13:41:26.680416,14.77567263,.0010956,97.9000,246.2799,288.1551,71.8466,0,U,55060,999,18852,.80375851E-4,.523E-5,0
HUYGENS,2023-001CN,2026-07-02T14:37:09.816960,15.40348826,.00098892,97.3243,250.8301,37.8277,322.3663,0,U,55093,999,19474,.24403888E-3,.9782E-4,0
SHARJAHSAT-1,2023-001CZ,2026-07-02T14:43:12.302112,15.49680704,.00059764,97.3166,252.5983,59.8750,300.3094,0,U,55104,999,19488,.37974284E-3,.2099E-3,0
HORUS 1,2023-025A,2026-07-02T15:43:24.457152,15.23424844,.00023919,97.3458,257.9243,131.7508,228.3934,0,U,55690,999,18640,.25854247E-3,.6087E-4,0
HORUS 2,2023-032A,2026-07-02T14:57:43.024896,15.23589104,.00022253,97.3531,258.7165,91.5640,268.5852,0,U,55844,999,18383,.28043824E-3,.6642E-4,0
GLOBAL-19,2023-041B,2026-07-02T02:20:38.362272,15.38377845,.00075324,42.0013,114.9146,123.0000,237.1564,0,U,55982,999,18422,.43492484E-3,.16619E-3,0
ION SCV-010,2023-054Q,2026-07-02T10:27:43.466400,15.26327089,.00138132,97.3760,72.7426,144.3754,215.8409,0,U,56192,999,17852,.22406205E-3,.576E-4,0
TELEOS-2,2023-057C,2026-07-02T08:27:38.579040,14.96403764,.00008627,9.9881,93.7517,265.7235,94.2880,0,U,56310,999,17507,.49089149E-3,.6409E-4,0
SNIPE 4,2023-072B,2026-07-02T14:05:49.460064,15.42929382,.00038863,97.5232,30.0858,262.5131,97.5675,0,U,56744,999,17248,.50879868E-3,.22321E-3,0
SNIPE 2,2023-072C,2026-07-02T15:34:47.559648,15.47635301,.00028932,97.5224,33.3026,301.0263,59.0702,0,U,56745,999,17263,.54614721E-3,.28154E-3,0
2023-072G,2023-072G,2026-07-02T14:41:24.713376,15.51457724,.00015274,97.4877,32.0857,281.2348,78.8732,0,U,56749,999,17285,.52853243E-3,.31166E-3,0
GEISAT PRECURSOR,2023-084C,2026-07-02T16:06:20.878272,15.34862508,.00040415,97.6246,325.1370,289.3344,70.7462,0,U,56934,999,16990,.24744872E-3,.8283E-4,0
BLACKJACK ACES-3,2023-084U,2026-07-02T15:43:42.323808,15.18621580,.00012615,97.6236,318.9659,347.2363,12.8839,0,U,56950,999,16951,.32260535E-3,.6609E-4,0
BLACKJACK ACES-2,2023-084Z,2026-07-02T09:32:42.048960,15.18598662,.000076,97.6232,318.7907,140.8256,219.3033,0,U,56955,999,16948,.39602325E-3,.8125E-4,0
BLACKJACK ACES-1,2023-084AA,2026-07-02T15:34:47.803296,15.18647100,.00013945,97.6224,318.8164,127.4883,232.6478,0,U,56956,999,11924,.36444167E-3,.7481E-4,0
ION SCV-011,2023-084AB,2026-07-02T13:51:17.033472,15.28992625,.0006842,98.1375,12.2836,354.5361,5.5801,0,U,56957,999,16816,.20344651E-3,.5643E-4,0
GHOST-3,2023-084AC,2026-07-02T14:40:45.105024,15.48402800,.00061303,97.6236,333.0166,230.7904,129.2802,0,U,56958,999,17040,.38085852E-3,.20123E-3,0
AFR-1,2023-084AJ,2026-07-02T14:46:24.174912,15.28684332,.00089867,97.6298,320.6801,286.4060,73.6191,0,U,56964,999,16958,.18962435E-3,.5214E-4,0
METEOR-M2 3,2023-091A,2026-07-02T15:02:03.778368,14.24048062,.00050088,98.6074,238.2883,118.4864,241.6821,0,U,57166,999,15671,.16999325E-4,-.4E-7,0
UMKA 1 (RS40S),2023-091G,2026-07-02T14:54:09.182304,15.20998984,.00140672,97.5040,242.2597,69.9565,290.3183,0,U,57172,999,16635,.30343917E-3,.6676E-4,0
2023-091H,2023-091H,2026-07-02T15:07:02.336160,15.28976057,.00107401,97.5038,246.9493,66.0861,294.1503,0,U,57173,999,16666,.42753854E-3,.11981E-3,0
2023-091J,2023-091J,2026-07-02T14:06:51.122880,15.14036135,.00148832,97.5042,236.4653,95.2734,265.0197,0,U,57174,999,16596,.22945233E-3,.4114E-4,0
CUBEBEL 2 (EU11S),2023-091K,2026-07-02T15:00:25.335936,15.29548108,.00107143,97.5041,246.9832,67.4010,292.8362,0,U,57175,999,16666,.48994883E-3,.13989E-3,0
SITRO-AIS 5 (KATYS),2023-091L,2026-07-02T13:46:31.382112,15.29812501,.00119503,97.5050,247.6223,55.1491,305.0872,0,U,57176,999,16669,.43965858E-3,.12651E-3,0
ZORKIY-2M 1,2023-091M,2026-07-02T14:33:08.497440,15.21107709,.00144815,97.5080,242.5238,67.2591,293.0174,0,U,57177,999,16634,.3291208E-3,.7272E-4,0
CUBESX-HSE 3 (RS42S),2023-091N,2026-07-02T14:16:06.330144,15.31606578,.00110105,97.5082,249.3795,45.7690,314.4453,0,U,57178,999,16678,.46770281E-3,.14232E-3,0
MONITOR-3 (RS58S),2023-091Q,2026-07-02T12:32:14.758656,15.28152800,.00122787,97.5074,247.0831,52.5237,307.7117,0,U,57180,999,16663,.41918822E-3,.11458E-3,0
MONITOR-4 (RS57S),2023-091S,2026-07-02T15:09:26.176608,15.28241276,.00122831,97.5067,247.1652,52.6181,307.6175,0,U,57182,999,16665,.39983227E-3,.10955E-3,0
